SL-16 R/B               
1 22566U 93016B   25362.46634990  .00000173  00000+0  11349-3 0  9990
2 22566  71.0086   4.7723 0008046  66.0626 294.1339 14.15294580692098
COSMOS 2242             
1 22626U 93024A   25362.35270522  .00003073  00000+0  26989-3 0  9999
2 22626  82.5195 334.9208 0016218 178.9470 181.1789 14.96174699769725
SL-16 R/B               
1 22803U 93059B   25362.40132275  .00000234  00000+0  13948-3 0  9999
2 22803  70.9890 161.4597 0018763 313.5896  46.3669 14.17217969669432
ARIANE 40 R/B           
1 22830U 93061H   25362.12124234  .00000330  00000+0  13667-3 0  9992
2 22830  98.5056  67.3700 0011627 132.8265 227.3898 14.32811963683854
COSMOS 2278             
1 23087U 94023A   25362.30761206  .00000226  00000+0  14256-3 0  9991
2 23087  71.0536 324.4391 0007687 151.3679 208.7867 14.14349798634719
SL-16 R/B               
1 23088U 94023B   25362.03306732 -.00000149  00000+0 -52262-4 0  9997
2 23088  70.9973 221.3700 0002235   1.4781 358.6348 14.14998750635959
SL-16 R/B               
1 23343U 94074B   25362.09719343  .00000652  00000+0  94184-4 0  9995
2 23343  97.7188  30.7902 0008046  93.9334 328.2631 14.79307638676661
SL-16 R/B               
1 23405U 94077B   25362.46662078 -.00000233  00000+0 -94829-4 0  9993
2 23405  70.9824 142.3286 0005043 272.0407  88.0138 14.15551226606154
ARIANE 40+ R/B          
1 23561U 95021B   25362.43366058  .00000412  00000+0  14538-3 0  9997
2 23561  98.4632  69.8318 0006640   5.4465   5.4483 14.39707897608997
SL-16 R/B               
1 23705U 95058B   25362.25809862  .00000006  00000+0  27416-4 0  9991
2 23705  71.0218 330.2229 0014500 234.5408 125.4362 14.15481408557742
SL-16 R/B               
1 24298U 96051B   25362.35277470  .00000017  00000+0  35975-4 0  9999
2 24298  70.7597 326.2350 0019448 242.2059 117.7089 14.12398014511578
ORBVIEW 2 (SEASTAR)     
1 24883U 97037A   25362.45964447  .00000429  00000+0  16567-3 0  9994
2 24883  98.8465 159.9306 0001205 268.5354  91.5692 14.35428946498257
